COSMOS 2473             
1 37806U 11048A   15363.50672094 -.00000141  00000-0  00000+0 0  9995
2 37806   0.0484  60.9815 0000615 299.0587 359.9499  1.00269986 15749
SES-2                   
1 37809U 11049A   15363.32027833 -.00000203  00000-0  00000+0 0  9993
2 37809   0.0344 304.2897 0002595 324.0296 217.4401  1.00271847 15689
ARABSAT-5C              
1 37810U 11049B   15362.65771303  .00000115  00000-0  00000+0 0  9999
2 37810   0.0619   4.6794 0002957 249.5389  99.3275  1.00271383 15589
EUTELSAT 7 WEST A       
1 37816U 11051A   15363.74823728 -.00000066  00000-0  00000+0 0  9994
2 37816   0.0674  31.5914 0004698 241.5388  86.8062  1.00272445 15646
QUETZSAT 1              
1 37826U 11054A   15363.32052227 -.00000248  00000-0  00000+0 0  9992
2 37826   0.0157   1.5384 0003274 294.7441 199.5374  1.00270422 15764
INTELSAT 18 (IS-18)     
1 37834U 11056A   15363.70551568  .00000047  00000-0  00000+0 0  9993
2 37834   0.0278  46.9076 0002305 256.4305 228.4374  1.00272461 15527
EUTELSAT 16A            
1 37836U 11057A   15363.76759019  .00000098  00000-0  00000+0 0  9999
2 37836   0.0613   7.7034 0005070 274.0073 108.4922  1.00271863 15465
VIASAT-1                
1 37843U 11059A   15364.17823433 -.00000028  00000-0  00000+0 0  9991
2 37843   0.0239  23.0816 0002677 255.6061 128.6748  1.00270561 15956
ASIASAT 7               
1 37933U 11069A   15362.98905515 -.00000341  00000-0  00000+0 0  9999
2 37933   0.0295 288.2446 0001770 312.6345 317.7978  1.00273532 15131
BEIDOU IGSO 5           
1 37948U 11073A   15363.76717730 -.00000167  00000-0  10000-3 0  9998
2 37948  53.8748 316.9300 0037978 206.3509 303.5556  1.00292278 15070
LUCH 5A                 
1 37951U 11074B   15363.84410547 -.00000050  00000-0  00000+0 0  9994
2 37951   1.9385 225.5662 0002344  42.3279 300.8630  1.00270410 14854
NIGCOMSAT 1R            
1 38014U 11077A   15364.10502591  .00000140  00000-0  00000+0 0  9998
2 38014   0.0164 213.8147 0003412  47.4545 277.2524  1.00271322 14703
FENGYUN 2F              
1 38049U 12002A   15363.90038431 -.00000362  00000-0  00000+0 0  9996
2 38049   0.6480  71.1542 0000488 183.0844 279.7576  1.00278963 14567
SES-4                   
1 38087U 12007A   15363.02363218 -.00000175  00000-0  00000+0 0  9992
2 38087   0.0180 358.8950 0002485 271.5953 173.1834  1.00271331 14152
BEIDOU G5               
1 38091U 12008A   15363.86479211  .00000051  00000-0  00000+0 0  9993
2 38091   1.3893  41.0121 0002975 212.5227 214.4666  1.00274219 14156
INTELSAT 22 (IS-22)     
1 38098U 12011A   15363.52834507 -.00000065  00000-0  00000+0 0  9996
2 38098   0.0201 352.6505 0002010 284.8301  82.4869  1.00270940 13721
APSTAR 7                
1 38107U 12013A   15363.76672550 -.00000107  00000-0  00000+0 0  9990
2 38107   0.0331  34.4612 0002524 242.4132 173.5326  1.00271367 13849
YAHSAT 1B               
1 38245U 12016A   15363.83782606  .00000121  00000-0  00000+0 0  9993
2 38245   0.0041 246.2886 0003177  25.8993 174.9811  1.00273119 13592
JCSAT-13                
1 38331U 12023A   15364.38224503 -.00000361  00000-0  00000+0 0  9992
2 38331   0.0291 352.0149 0001930 312.3156  55.6513  1.00268712 13253
VINASAT-2               
1 38332U 12023B   15363.73246562 -.00000334  00000-0  00000+0 0  9990
2 38332   0.0197 314.2424 0002847 348.8570 190.2775  1.00272081 13291
NIMIQ 6                 
1 38342U 12026A   15362.98334289 -.00000180  00000-0  00000+0 0  9993
2 38342   0.0265 355.6367 0002326 283.5282  80.8088  1.00269039 13267
CHINASAT 2A (ZX 2A)     
1 38352U 12028A   15364.04508946 -.00000298  00000-0  00000+0 0  9998
2 38352   0.0507 209.7397 0005436 111.4933 251.4263  1.00272555 13310
INTELSAT 19 (IS-19)     
1 38356U 12030A   15364.26546130 -.00000061  00000-0  00000+0 0  9994
2 38356   0.0398  26.3598 0002819 252.3123  81.2959  1.00269880 13190
ECHOSTAR 17             
1 38551U 12035A   15363.02754092 -.00000082  00000-0  00000+0 0  9990
2 38551   0.0227  15.8333 0002229 256.3980  87.7432  1.00269873 12792
METEOSAT-10 (MSG-3)     
1 38552U 12035B   15363.72910137 -.00000012  00000-0  00000+0 0  9995
2 38552   0.4436  87.1048 0000983 176.9572  95.9166  1.00272937 12894
SES-5                   
1 38652U 12036A   15363.96506580  .00000028  00000-0  00000+0 0  9992
2 38652   0.0495 268.5605 0002403   1.4497 180.4612  1.00272046 12748
TIANLIAN 1-03           
1 38730U 12040A   15361.68685462  .00000100  00000-0  00000-0 0  9990
2 38730   0.0584 259.1906 0002891  19.5911  81.1757  1.00276464 10367
INTELSAT 20 (IS-20)     
1 38740U 12043A   15362.54107952 -.00000032  00000-0  00000+0 0  9997
2 38740   0.0227  13.3985 0001031 163.8639 182.7382  1.00270127 12492
HYLAS 2                 
1 38741U 12043B   15362.64456912  .00000146  00000-0  00000+0 0  9997
2 38741   0.0165 351.8347 0001317 294.4263  73.7244  1.00272368 12515
INTELSAT 21 (IS-21)     
1 38749U 12045A   15364.19828135 -.00000289  00000-0  00000+0 0  9998
2 38749   0.0180  20.4172 0002770 249.5657 201.7077  1.00271073 12314
ASTRA 2F                
1 38778U 12051A   15363.64994037  .00000144  00000-0  00000+0 0  9990
2 38778   0.0783 243.4209 0004304   9.1720 107.3502  1.00270278 11969
GSAT-10                 
1 38779U 12051B   15363.49808690 -.00000171  00000-0  00000+0 0  9994
2 38779   0.0214 284.7522 0002733 347.1167  88.0900  1.00272263 11962
INTELSAT 23 (IS-23)     
1 38867U 12057A   15363.18713757 -.00000292  00000-0  00000+0 0  9997
2 38867   0.0191 291.6274 0002492 350.8988 189.1447  1.00270093 11787
BEIDOU G6               
1 38953U 12059A   15363.81627321 -.00000142  00000-0  10000-3 0  9995
2 38953   0.5738  74.2639 0004199 183.5334 214.0350  1.00271444 11723
LUCH 5B                 
1 38977U 12061A   15364.37185698 -.00000134  00000-0  00000+0 0  9998
2 38977   2.4768  78.9775 0004194 193.8676 303.2976  1.00271982 11859
YAMAL 300K              
1 38978U 12061B   15363.58331426  .00000065  00000-0  00000+0 0  9995
2 38978   0.0294 121.1186 0000266  53.1600 316.3513  1.00275042 11545
STAR ONE C3             
1 38991U 12062A   15363.35505433 -.00000256  00000-0  00000+0 0  9990
2 38991   0.0151  69.8659 0003662 229.5887 210.8384  1.00271039 11528
EUTELSAT 21B            
1 38992U 12062B   15363.66831159  .00000124  00000-0  00000+0 0  9995
2 38992   0.0613   7.8077 0002512 275.6415  76.5131  1.00271908 11544
ECHOSTAR 16             
1 39008U 12065A   15361.90394467 -.00000291  00000-0  00000-0 0  9995
2 39008   0.0220  15.3967 0002728 258.8584  85.7138  1.00270658 11302
CHINASAT 12 (ZX 12)     
1 39017U 12067A   15363.83014523 -.00000212  00000-0  00000+0 0  9995
2 39017   0.0146  49.7396 0003455 230.2821 204.2892  1.00272404 11386
EUTELSAT 70B            
1 39020U 12069A   15362.53553787 -.00000051  00000-0  00000+0 0  9998
2 39020   0.0631  24.3281 0003688 242.7668  92.8527  1.00272171 11271
YAMAL 402               
1 39022U 12070A   15363.83282196  .00000080  00000-0  10000-3 0  9995
2 39022   0.0165 312.3340 0000678   1.1377 139.1891  1.00273902 11273
SKYNET 5D               
1 39034U 12075A   15364.17498493  .00000095  00000-0  00000+0 0  9991
2 39034   0.0685 359.7025 0004080 276.0938 298.2079  1.00270699 11191
MEXSAT 3                
1 39035U 12075B   15363.04884608 -.00000033  00000-0  00000+0 0  9997
2 39035   0.0324 139.7177 0002622 141.0982  79.1444  1.00272950 11145
TDRS 11                 
1 39070U 13004A   15363.12028694  .00000087  00000-0  00000+0 0  9991
2 39070   6.0393 329.5150 0012130 277.7360  82.2404  1.00265775 10651
AMAZONAS 3              
1 39078U 13006A   15362.89969061 -.00000290  00000-0  00000+0 0  9993
2 39078   0.0154 262.0872 0004787 345.2187 112.6434  1.00270408 10635
AZERSPACE 1             
1 39079U 13006B   15362.60316734  .00000125  00000-0  00000+0 0  9992
2 39079   0.0198  18.5220 0002094 279.1524  62.3043  1.00268960 10608
EUTELSAT 117 WEST A     
1 39122U 13012A   15364.05159473 -.00000018  00000-0  00000+0 0  9996
2 39122   0.0210 355.9660 0002640 281.7660  82.2381  1.00269935 10143
ANIK G1                 
1 39127U 13014A   15364.02533339 -.00000078  00000-0  00000+0 0  9993
2 39127   0.0185 299.5385 0002687 339.3253  81.0962  1.00263432  9938
CHINASAT 11 (ZX 11)     
1 39157U 13020A   15363.58157730 -.00000296  00000-0  00000+0 0  9992
2 39157   0.0119 285.7720 0004502 320.2980 158.9768  1.00269159  9820
EUTELSAT 7B             
1 39163U 13022A   15363.70873840  .00000042  00000-0  00000+0 0  9990
2 39163   0.0385  20.6002 0005152 305.1140  34.2427  1.00272358  9679
SES-6                   
1 39172U 13026A   15364.37376862 -.00000265  00000-0  00000+0 0  9998
2 39172   0.0191   5.6233 0001686 285.5485 261.3871  1.00272289  9404
IRNSS-1A                
1 39199U 13034A   15363.92038664  .00000108  00000-0  00000+0 0  9996
2 39199  28.0184 124.4779 0020944 182.1581 177.7343  1.00275382  9318
ALPHASAT                
1 39215U 13038A   15363.80424095  .00000134  00000-0  00000+0 0  9992
2 39215   1.1059  32.6077 0002181 232.3456 147.3354  1.00273988  8946
INSAT-3D                
1 39216U 13038B   15363.50071885 -.00000162  00000-0  00000+0 0  9997
2 39216   0.0572 271.4542 0001425   3.2649  85.2549  1.00271089  8973
EUTELSAT 25B            
1 39233U 13044A   15360.89099688  .00000134  00000-0  00000+0 0  9991
2 39233   0.0445   9.2538 0002199 275.4660 156.5942  1.00274482  8540
GSAT-7                  
1 39234U 13044B   15362.83773976 -.00000085  00000-0  00000-0 0  9994
2 39234   0.0578  93.5705 0011934 182.1622 196.8157  1.00272472  7034
AMOS-4                  
1 39237U 13045A   15363.54789324  .00000001  00000-0  00000+0 0  9997
2 39237   0.0172   9.7033 0002502 266.1248  84.1434  1.00268950  8560
ASTRA 2E                
1 39285U 13056A   15362.65195033  .00000142  00000-0  00000+0 0  9997
2 39285   0.0472  18.4304 0002012 260.3016  81.2351  1.00271236  8252
SIRIUS FM-6             
1 39360U 13058A   15363.05256145 -.00000024  00000-0  00000+0 0  9990
2 39360   0.0347  23.4588 0000243 357.1599 339.3823  1.00269683  8010
